     3.05           N: GNSS NAV DATA    E: Galileo          RINEX VERSION / TYPE
BNC 2.13.0          BKG Frankfurt       20220507 002224 UTC PGM / RUN BY / DATE
Concatenated RINEX files (6)                                COMMENT
                                                            END OF HEADER
E15 2022 05 06 05 30 00 7.473922451027e-04-2.344791028008e-12 0.000000000000e+00
     1.130000000000e+02-6.250000000000e+01 2.486532145473e-09 1.972718682737e-01
    -2.797693014145e-06 2.239960012957e-04 1.439824700356e-06 5.440611104965e+03
     4.518000000000e+05-3.352761268616e-08 2.853774205185e+00 7.264316082001e-08
     9.978374536723e-01 3.275312500000e+02-2.521837872098e-01-5.555945713154e-09
     2.750114553310e-11 5.170000000000e+02 2.208000000000e+03 0.000000000000e+00
     3.120000000000e+00 0.000000000000e+00 6.984919309616e-09 7.450580596924e-09
     4.524650000000e+05                                                         
E19 2022 05 06 05 30 00-4.192265332676e-03-6.370726168825e-10 0.000000000000e+00
     1.130000000000e+02-1.768750000000e+01 3.426928459611e-09-2.843860468718e+00
    -7.376074790955e-07 3.405585885048e-04 7.448717951775e-06 5.440614425659e+03
     4.518000000000e+05-5.401670932770e-08-1.326073851887e+00 2.793967723846e-08
     9.615955454228e-01 1.809687500000e+02-1.600513598467e+00-5.518801308798e-09
     4.171602335410e-10 5.170000000000e+02 2.208000000000e+03 0.000000000000e+00
     3.120000000000e+00 0.000000000000e+00-3.259629011154e-09-3.259629011154e-09
     4.524650000000e+05                                                         
E27 2022 05 06 05 30 00-2.922918065451e-04-8.697043085704e-12 0.000000000000e+00
     1.130000000000e+02 8.978125000000e+01 2.710112887080e-09 1.151480792140e+00
     4.244968295097e-06 1.567720901221e-04 9.566545486450e-06 5.440614627838e+03
     4.518000000000e+05-9.313225746155e-08 7.685029225000e-01-2.421438694000e-08
     9.736235145046e-01 1.413125000000e+02 6.275315837807e-02-5.228432070896e-09
    -4.282321233011e-10 2.580000000000e+02 2.208000000000e+03 0.000000000000e+00
     3.120000000000e+00 0.000000000000e+00 1.862645149231e-09 0.000000000000e+00
     4.525400000000e+05                                                         
E30 2022 05 06 05 30 00-4.875781596638e-04-3.072386789427e-11 0.000000000000e+00
     1.130000000000e+02 1.002812500000e+02 2.768329597754e-09 1.108245251869e+00
     4.466623067856e-06 4.107326967642e-04 9.747222065926e-06 5.440620117188e+03
     4.518000000000e+05-2.235174179077e-08 7.726719127952e-01-4.284083843231e-08
     9.715367759721e-01 1.390937500000e+02 9.300041981564e-01-5.259147636037e-09
    -4.946634618616e-10 2.580000000000e+02 2.208000000000e+03 0.000000000000e+00
     3.120000000000e+00 0.000000000000e+00 1.629814505577e-09 0.000000000000e+00
     4.525400000000e+05                                                         
E07 2022 05 06 05 30 00-6.656670011580e-04-3.737454790098e-12 0.000000000000e+00
     1.130000000000e+02-2.509375000000e+01 3.468001599044e-09-1.975812122494e+00
    -1.220032572746e-06 3.893141401932e-04 7.480382919312e-06 5.440616107941e+03
     4.518000000000e+05-1.862645149231e-09-1.327909746782e+00-4.656612873077e-08
     9.559493165433e-01 1.803750000000e+02-9.948075367441e-01-5.490943005531e-09
     3.646580466142e-10 2.580000000000e+02 2.208000000000e+03 0.000000000000e+00
     3.120000000000e+00 0.000000000000e+00 5.355104804039e-09 0.000000000000e+00
     4.525400000000e+05                                                         
E15 2022 05 06 05 30 00 7.473924779333e-04-2.344791028008e-12 0.000000000000e+00
     1.130000000000e+02-6.250000000000e+01 2.486532145473e-09 1.972718682737e-01
    -2.797693014145e-06 2.239960012957e-04 1.439824700356e-06 5.440611104965e+03
     4.518000000000e+05-3.352761268616e-08 2.853774205185e+00 7.264316082001e-08
     9.978374536723e-01 3.275312500000e+02-2.521837872098e-01-5.555945713154e-09
     2.750114553310e-11 2.580000000000e+02 2.208000000000e+03 0.000000000000e+00
     3.120000000000e+00 0.000000000000e+00 6.984919309616e-09 0.000000000000e+00
     4.525400000000e+05                                                         
E19 2022 05 06 05 30 00-4.192264052108e-03-6.370868277372e-10 0.000000000000e+00
     1.130000000000e+02-1.768750000000e+01 3.426928459611e-09-2.843860468718e+00
    -7.376074790955e-07 3.405585885048e-04 7.448717951775e-06 5.440614425659e+03
     4.518000000000e+05-5.401670932770e-08-1.326073851887e+00 2.793967723846e-08
     9.615955454228e-01 1.809687500000e+02-1.600513598467e+00-5.518801308798e-09
     4.171602335410e-10 2.580000000000e+02 2.208000000000e+03 0.000000000000e+00
     3.120000000000e+00 0.000000000000e+00-3.259629011154e-09 0.000000000000e+00
     4.525400000000e+05                                                         
E21 2022 05 06 05 30 00-7.325412589125e-04-2.131628207280e-12 0.000000000000e+00
     1.130000000000e+02 8.684375000000e+01 2.808688421718e-09-8.072588305991e-01
     4.123896360397e-06 1.150552416220e-04 9.126961231232e-06 5.440615034103e+03
     4.518000000000e+05-5.587935447693e-09 7.685112099309e-01 6.332993507385e-08
     9.736504980285e-01 1.468750000000e+02 1.227952900756e+00-5.303435195078e-09
    -3.671581507536e-10 5.170000000000e+02 2.208000000000e+03 0.000000000000e+00
     3.120000000000e+00 0.000000000000e+00 2.793967723846e-09 2.793967723846e-09
     4.527350000000e+05                                                         
E21 2022 05 06 05 30 00-7.325407350436e-04-2.145839061996e-12 0.000000000000e+00
     1.130000000000e+02 8.684375000000e+01 2.808688421718e-09-8.072588305991e-01
     4.123896360397e-06 1.150552416220e-04 9.126961231232e-06 5.440615034103e+03
     4.518000000000e+05-5.587935447693e-09 7.685112099309e-01 6.332993507385e-08
     9.736504980285e-01 1.468750000000e+02 1.227952900756e+00-5.303435195078e-09
    -3.671581507536e-10 2.580000000000e+02 2.208000000000e+03 0.000000000000e+00
     3.120000000000e+00 0.000000000000e+00 2.793967723846e-09 0.000000000000e+00
     4.527900000000e+05                                                         
E13 2022 05 06 05 30 00 4.284943570383e-04 1.989519660128e-13 0.000000000000e+00
     1.130000000000e+02-5.918750000000e+01 2.554392114970e-09-8.574658016467e-01
    -2.613291144371e-06 2.333292504773e-04 1.681968569756e-06 5.440609226227e+03
     4.518000000000e+05 3.166496753693e-08 2.853821267259e+00 4.284083843231e-08
     9.978794116257e-01 3.171562500000e+02 1.093831016167e-02-5.557017186357e-09
     2.500104139373e-11 5.170000000000e+02 2.208000000000e+03 0.000000000000e+00
     3.120000000000e+00 0.000000000000e+00 1.164153218269e-09 6.984919309616e-10
     4.529670000000e+05                                                         
E13 2022 05 06 05 30 00 4.284955793992e-04 2.131628207280e-13 0.000000000000e+00
     1.130000000000e+02-5.918750000000e+01 2.554392114970e-09-8.574658016467e-01
    -2.613291144371e-06 2.333292504773e-04 1.681968569756e-06 5.440609226227e+03
     4.518000000000e+05 3.166496753693e-08 2.853821267259e+00 4.284083843231e-08
     9.978794116257e-01 3.171562500000e+02 1.093831016167e-02-5.557017186357e-09
     2.500104139373e-11 2.580000000000e+02 2.208000000000e+03 0.000000000000e+00
     3.120000000000e+00 0.000000000000e+00 1.164153218269e-09 0.000000000000e+00
     4.529900000000e+05                                                         
E04 2022 05 06 05 30 00-1.021804579068e-03-8.284928298963e-12 0.000000000000e+00
     1.130000000000e+02-1.325000000000e+01 3.502645899261e-09 2.399984218942e+00
    -6.500631570816e-07 3.450235817581e-04 7.431954145432e-06 5.440615722656e+03
     4.518000000000e+05 2.980232238770e-08-1.327860771211e+00-1.862645149231e-09
     9.559477585355e-01 1.776250000000e+02-1.431712595662e+00-5.587375593764e-09
     3.971594004260e-10 2.580000000000e+02 2.208000000000e+03 0.000000000000e+00
     3.120000000000e+00 0.000000000000e+00-3.026798367500e-09 0.000000000000e+00
     4.555400000000e+05                                                         
E04 2022 05 06 05 30 00-1.021805976052e-03-8.299139153678e-12 0.000000000000e+00
     1.130000000000e+02-1.325000000000e+01 3.502645899261e-09 2.399984218942e+00
    -6.500631570816e-07 3.450235817581e-04 7.431954145432e-06 5.440615722656e+03
     4.518000000000e+05 2.980232238770e-08-1.327860771211e+00-1.862645149231e-09
     9.559477585355e-01 1.776250000000e+02-1.431712595662e+00-5.587375593764e-09
     3.971594004260e-10 5.170000000000e+02 2.208000000000e+03 0.000000000000e+00
     3.120000000000e+00 0.000000000000e+00-3.026798367500e-09-3.492459654808e-09
     4.555550000000e+05                                                         
E11 2022 05 06 05 30 00 3.754538251090e-03-1.126778670370e-10 0.000000000000e+00
     1.130000000000e+02-8.362500000000e+01 2.570464213010e-09 1.546905142470e+00
    -3.768131136890e-06 5.272470880300e-04 1.765787601470e-06 5.440615329740e+03
     4.518000000000e+05-1.490116119380e-08 2.856498265440e+00-4.656612873080e-08
     9.947359766430e-01 3.155312500000e+02 7.201404731760e-01-5.605947795940e-09
     6.071681481330e-12 5.170000000000e+02 2.208000000000e+03 0.000000000000e+00
     3.120000000000e+00 0.000000000000e+00-1.303851604460e-08-1.443549990650e-08
     4.524640000000e+05                                                         
